{
  "type": "FeatureCollection",
  "features": [
    {
      "type": "Feature",
      "properties": {
        "norad_id": 41890,
        "name": "CYGFM07",
        "group": "weather",
        "lat": -34.047494639554884,
        "lon": -14.885598365594536,
        "alt_km": 422.90231940043395,
        "timestamp": "2025-12-06T18:50:09.814128+00:00",
        "meta_object_name": "CYGFM07",
        "meta_object_id": "2016-078G",
        "meta_epoch": "2025-12-05T23:04:17.321376",
        "meta_mean_motion": 15.49591135,
        "meta_eccentricity": 0.00091895,
        "meta_inclination": 34.9479,
        "meta_ra_of_asc_node": 65.8818,
        "meta_arg_of_pericenter": 154.816,
        "meta_mean_anomaly": 205.3011,
        "meta_ephemeris_type": 0,
        "meta_classification_type": "U",
        "meta_norad_cat_id": 41890,
        "meta_element_set_no": 999,
        "meta_rev_at_epoch": 49890,
        "meta_bstar": 0.00051239643,
        "meta_mean_motion_dot": 0.00029304,
        "meta_mean_motion_ddot": 0,
        "tle_line1": "1 41890U 16078G   25339.96131159  .00029304  00000+0  51240-3 0  9993",
        "tle_line2": "2 41890  34.9479  65.8818 0009189 154.8160 205.3011 15.49591135498903"
      },
      "geometry": {
        "type": "Point",
        "coordinates": [
          -14.885598365594536,
          -34.047494639554884
        ]
      }
    },
    {
      "type": "Feature",
      "properties": {
        "norad_id": 41891,
        "name": "CYGFM03",
        "group": "weather",
        "lat": 30.097060612226105,
        "lon": -173.7086668230501,
        "alt_km": 407.4181243335952,
        "timestamp": "2025-12-06T18:50:09.814138+00:00",
        "meta_object_name": "CYGFM03",
        "meta_object_id": "2016-078H",
        "meta_epoch": "2025-12-06T07:30:08.690112",
        "meta_mean_motion": 15.49518459,
        "meta_eccentricity": 0.00084445,
        "meta_inclination": 34.9434,
        "meta_ra_of_asc_node": 65.4951,
        "meta_arg_of_pericenter": 144.5528,
        "meta_mean_anomaly": 215.5756,
        "meta_ephemeris_type": 0,
        "meta_classification_type": "U",
        "meta_norad_cat_id": 41891,
        "meta_element_set_no": 999,
        "meta_rev_at_epoch": 49893,
        "meta_bstar": 0.00057425617,
        "meta_mean_motion_dot": 0.00032769,
        "meta_mean_motion_ddot": 0,
        "tle_line1": "1 41891U 16078H   25340.31260058  .00032769  00000+0  57426-3 0  9997",
        "tle_line2": "2 41891  34.9434  65.4951 0008444 144.5528 215.5756 15.49518459498936"
      },
      "geometry": {
        "type": "Point",
        "coordinates": [
          -173.7086668230501,
          30.097060612226105
        ]
      }
    },
    {
      "type": "Feature",
      "properties": {
        "norad_id": 43010,
        "name": "FENGYUN 3D",
        "group": "weather",
        "lat": -9.906818261823796,
        "lon": 125.42206564990043,
        "alt_km": 830.0314046408494,
        "timestamp": "2025-12-06T18:50:09.814149+00:00",
        "meta_object_name": "FENGYUN 3D",
        "meta_object_id": "2017-072A",
        "meta_epoch": "2025-12-06T06:06:14.468832",
        "meta_mean_motion": 14.19681072,
        "meta_eccentricity": 7.131e-05,
        "meta_inclination": 98.9885,
        "meta_ra_of_asc_node": 306.4678,
        "meta_arg_of_pericenter": 204.2138,
        "meta_mean_anomaly": 155.9004,
        "meta_ephemeris_type": 0,
        "meta_classification_type": "U",
        "meta_norad_cat_id": 43010,
        "meta_element_set_no": 999,
        "meta_rev_at_epoch": 41761,
        "meta_bstar": 0.00013054308,
        "meta_mean_motion_dot": 2.3e-06,
        "meta_mean_motion_ddot": 0,
        "tle_line1": "1 43010U 17072A   25340.25433413  .00000230  00000+0  13054-3 0  9994",
        "tle_line2": "2 43010  98.9885 306.4678 0000713 204.2138 155.9004 14.19681072417614"
      },
      "geometry": {
        "type": "Point",
        "coordinates": [
          125.42206564990043,
          -9.906818261823796
        ]
      }
    },
    {
      "type": "Feature",
      "properties": {
        "norad_id": 43013,
        "name": "NOAA 20 (JPSS-1)",
        "group": "weather",
        "lat": -14.212848434416951,
        "lon": -80.61515884088418,
        "alt_km": 832.0275133432151,
        "timestamp": "2025-12-06T18:50:09.814160+00:00",
        "meta_object_name": "NOAA 20 (JPSS-1)",
        "meta_object_id": "2017-073A",
        "meta_epoch": "2025-12-06T05:22:13.378080",
        "meta_mean_motion": 14.19523105,
        "meta_eccentricity": 0.0002107,
        "meta_inclination": 98.7589,
        "meta_ra_of_asc_node": 276.5922,
        "meta_arg_of_pericenter": 96.4619,
        "meta_mean_anomaly": 263.6797,
        "meta_ephemeris_type": 0,
        "meta_classification_type": "U",
        "meta_norad_cat_id": 43013,
        "meta_element_set_no": 999,
        "meta_rev_at_epoch": 41709,
        "meta_bstar": 0.00011875195,
        "meta_mean_motion_dot": 2.06e-06,
        "meta_mean_motion_ddot": 0,
        "tle_line1": "1 43013U 17073A   25340.22376595  .00000206  00000+0  11875-3 0  9994",
        "tle_line2": "2 43013  98.7589 276.5922 0002107  96.4619 263.6797 14.19523105417099"
      },
      "geometry": {
        "type": "Point",
        "coordinates": [
          -80.61515884088418,
          -14.212848434416951
        ]
      }
    },
    {
      "type": "Feature",
      "properties": {
        "norad_id": 43226,
        "name": "GOES 17",
        "group": "weather",
        "lat": -0.02131940592851774,
        "lon": -91.15163237002177,
        "alt_km": 35771.45362995644,
        "timestamp": "2025-12-06T18:50:09.814172+00:00",
        "meta_object_name": "GOES 17",
        "meta_object_id": "2018-022A",
        "meta_epoch": "2025-12-06T06:23:31.375968",
        "meta_mean_motion": 1.00270942,
        "meta_eccentricity": 0.0003526,
        "meta_inclination": 0.4423,
        "meta_ra_of_asc_node": 89.2531,
        "meta_arg_of_pericenter": 183.5694,
        "meta_mean_anomaly": 168.8688,
        "meta_ephemeris_type": 0,
        "meta_classification_type": "U",
        "meta_norad_cat_id": 43226,
        "meta_element_set_no": 999,
        "meta_rev_at_epoch": 2848,
        "meta_bstar": 0,
        "meta_mean_motion_dot": -1.75e-06,
        "meta_mean_motion_ddot": 0,
        "tle_line1": "1 43226U 18022A   25340.26633537 -.00000175  00000+0  00000+0 0  9991",
        "tle_line2": "2 43226   0.4423  89.2531 0003526 183.5694 168.8688  1.00270942 28484"
      },
      "geometry": {
        "type": "Point",
        "coordinates": [
          -91.15163237002177,
          -0.02131940592851774
        ]
      }
    },
    {
      "type": "Feature",
      "properties": {
        "norad_id": 43491,
        "name": "FENGYUN 2H",
        "group": "weather",
        "lat": -0.13713607690497562,
        "lon": 77.71058567748196,
        "alt_km": 35798.42694393376,
        "timestamp": "2025-12-06T18:50:09.814184+00:00",
        "meta_object_name": "FENGYUN 2H",
        "meta_object_id": "2018-050A",
        "meta_epoch": "2025-12-06T02:03:30.718944",
        "meta_mean_motion": 1.00271272,
        "meta_eccentricity": 0.00029308,
        "meta_inclination": 2.5328,
        "meta_ra_of_asc_node": 81.4024,
        "meta_arg_of_pericenter": 164.6264,
        "meta_mean_anomaly": 299.3423,
        "meta_ephemeris_type": 0,
        "meta_classification_type": "U",
        "meta_norad_cat_id": 43491,
        "meta_element_set_no": 999,
        "meta_rev_at_epoch": 2750,
        "meta_bstar": 0,
        "meta_mean_motion_dot": -1.23e-06,
        "meta_mean_motion_ddot": 0,
        "tle_line1": "1 43491U 18050A   25340.08577221 -.00000123  00000+0  00000+0 0  9996",
        "tle_line2": "2 43491   2.5328  81.4024 0002930 164.6264 299.3423  1.00271272 27503"
      },
      "geometry": {
        "type": "Point",
        "coordinates": [
          77.71058567748196,
          -0.13713607690497562
        ]
      }
    },
    {
      "type": "Feature",
      "properties": {
        "norad_id": 43689,
        "name": "METOP-C",
        "group": "weather",
        "lat": 79.7195954373217,
        "lon": -18.87579876253565,
        "alt_km": 811.8832521059921,
        "timestamp": "2025-12-06T18:50:09.814195+00:00",
        "meta_object_name": "METOP-C",
        "meta_object_id": "2018-087A",
        "meta_epoch": "2025-12-06T06:36:54.190944",
        "meta_mean_motion": 14.21508244,
        "meta_eccentricity": 0.0001604,
        "meta_inclination": 98.6938,
        "meta_ra_of_asc_node": 38.144,
        "meta_arg_of_pericenter": 53.1758,
        "meta_mean_anomaly": 306.9566,
        "meta_ephemeris_type": 0,
        "meta_classification_type": "U",
        "meta_norad_cat_id": 43689,
        "meta_element_set_no": 999,
        "meta_rev_at_epoch": 36742,
        "meta_bstar": 0.00016045209,
        "meta_mean_motion_dot": 3.07e-06,
        "meta_mean_motion_ddot": 0,
        "tle_line1": "1 43689U 18087A   25340.27562721  .00000307  00000+0  16045-3 0  9998",
        "tle_line2": "2 43689  98.6938  38.1440 0001604  53.1758 306.9566 14.21508244367423"
      },
      "geometry": {
        "type": "Point",
        "coordinates": [
          -18.87579876253565,
          79.7195954373217
        ]
      }
    }
  ]
}